1 29155U 06018A   12023.17964328 -.00000265 +00000-0 +10000-3 0 09184
2 29155 000.3844 081.0870 0001670 309.9555 080.9890 01.00272244020780